NORAD_CAT_ID,OBJECT_NAME,OBJECT_TYPE,EPOCH,MEAN_MOTION,ECCENTRICITY,INCLINATION,RA_OF_ASC_NODE,ARG_OF_PERICENTER,MEAN_ANOMALY,BSTAR,MEAN_MOTION_DOT,MEAN_MOTION_DDOT,TLE_LINE0,TLE_LINE1,TLE_LINE2,SEMIMAJOR_AXIS,PERIOD,APOGEE,PERIGEE,DECAYED
54193.0,STARLINK-5263,PAYLOAD,2023-04-01 20:11:26,15.08841169,0.0001611,53.2159,130.3673,85.3866,274.731,0.00084025,0.0001311,0.0,0 STARLINK-5263,1 54193U 22141AN  23091.84127728  .00013110  00000-0  84025-3 0  9994,2 54193  53.2159 130.3673 0001611  85.3866 274.7310 15.08841169 24033,6917.877,95.437,540.856,538.627,0.0
54193.0,STARLINK-5263,PAYLOAD,2023-04-02 12:05:17,15.08853154,0.0001392,53.2166,127.3933,92.3787,267.7364,0.001351,0.00021286,0.0,0 STARLINK-5263,1 54193U 22141AN  23092.50367600  .00021286  00000-0  13510-2 0  9996,2 54193  53.2166 127.3933 0001392  92.3787 267.7364 15.08853154 24366,6917.84,95.437,540.668,538.742,0.0
54193.0,STARLINK-5263,PAYLOAD,2023-04-02 13:40:40,15.08853031,0.0001413,53.2163,127.096,87.9949,272.1205,0.0011395,0.000179,0.0,0 STARLINK-5263,1 54193U 22141AN  23092.56991571  .00017900  00000-0  11395-2 0  9999,2 54193  53.2163 127.0960 0001413  87.9949 272.1205 15.08853031 24148,6917.841,95.437,540.683,538.728,0.0
54193.0,STARLINK-5263,PAYLOAD,2023-04-03 11:56:04,15.08854583,0.0001331,53.2167,122.9321,96.1191,263.9953,0.00075378,0.00011734,0.0,0 STARLINK-5263,1 54193U 22141AN  23093.49727425  .00011734  00000-0  75378-3 0  9998,2 54193  53.2167 122.9321 0001331  96.1191 263.9953 15.08854583 24519,6917.836,95.437,540.622,538.78,0.0
54193.0,STARLINK-5263,PAYLOAD,2023-04-03 13:31:27,15.08854723,0.000131,53.2166,122.6347,96.4366,263.6775,0.0008188,0.00012772,0.0,0 STARLINK-5263,1 54193U 22141AN  23093.56351388  .00012772  00000-0  81880-3 0  9995,2 54193  53.2166 122.6347 0001310  96.4366 263.6775 15.08854723 24297,6917.835,95.437,540.607,538.794,0.0
54193.0,STARLINK-5263,PAYLOAD,2023-04-04 02:14:32,15.08848835,0.0001779,53.2172,120.2551,92.9918,267.1278,0.00047464,7.276e-05,0.0,0 STARLINK-5263,1 54193U 22141AN  23094.09343414  .00007276  00000-0  47464-3 0  9998,2 54193  53.2172 120.2551 0001779  92.9918 267.1278 15.08848835 24607,6917.853,95.437,540.949,538.488,0.0
54193.0,STARLINK-5263,PAYLOAD,2023-04-04 13:22:14,15.0885371,0.0001577,53.2168,118.172,108.4215,251.6948,0.00030167,4.518e-05,0.0,0 STARLINK-5263,1 54193U 22141AN  23094.55710862  .00004518  00000-0  30167-3 0  9992,2 54193  53.2168 118.1720 0001577 108.4215 251.6948 15.08853710 24447,6917.838,95.437,540.794,538.613,0.0
54193.0,STARLINK-5263,PAYLOAD,2023-04-05 02:05:19,15.08841357,0.0002015,53.2167,115.7929,90.581,269.5413,5.8e-05,6.35e-06,0.0,0 STARLINK-5263,1 54193U 22141AN  23095.08703424  .00000635  00000-0  58000-4 0  9990,2 54193  53.2167 115.7929 0002015  90.5810 269.5413 15.08841357 24753,6917.876,95.437,541.135,538.347,0.0
54193.0,STARLINK-5263,PAYLOAD,2023-04-05 11:37:38,15.08836447,0.0001462,53.2172,114.0091,101.6913,258.4243,-5.3127e-06,-3.72e-06,0.0,0 STARLINK-5263,1 54193U 22141AN  23095.48447587 -.00000372  00000-0 -53127-5 0  9995,2 54193  53.2172 114.0091 0001462 101.6913 258.4243 15.08836447 24587,6917.891,95.438,540.768,538.745,0.0
54193.0,STARLINK-5263,PAYLOAD,2023-04-05 17:59:11,15.08837556,0.0001407,53.2171,112.8203,97.881,262.2342,3.3039e-05,2.38e-06,0.0,0 STARLINK-5263,1 54193U 22141AN  23095.74943632  .00000238  00000-0  33039-4 0  9994,2 54193  53.2171 112.8203 0001407  97.8810 262.2342 15.08837556 24628,6917.888,95.438,540.726,538.78,0.0
54193.0,STARLINK-5263,PAYLOAD,2023-04-06 05:06:53,15.08842771,0.0001252,53.2159,110.7402,97.333,262.7804,0.000133,1.83e-05,0.0,0 STARLINK-5263,1 54193U 22141AN  23096.21311480  .00001830  00000-0  13300-3 0  9994,2 54193  53.2159 110.7402 0001252  97.3330 262.7804 15.08842771 24928,6917.872,95.437,540.603,538.871,0.0
54193.0,STARLINK-5263,PAYLOAD,2023-04-06 09:53:02,15.08845851,0.0001258,53.2157,109.8482,95.9043,264.2093,0.00030911,4.636e-05,0.0,0 STARLINK-5263,1 54193U 22141AN  23096.41183468  .00004636  00000-0  30911-3 0  9993,2 54193  53.2157 109.8482 0001258  95.9043 264.2093 15.08845851 24721,6917.863,95.437,540.598,538.857,0.0
54193.0,STARLINK-5263,PAYLOAD,2023-04-06 17:49:58,15.08842565,0.0001288,53.2154,108.3614,88.7856,271.3283,0.00023608,3.472e-05,0.0,0 STARLINK-5263,1 54193U 22141AN  23096.74303616  .00003472  00000-0  23608-3 0  9990,2 54193  53.2154 108.3614 0001288  88.7856 271.3283 15.08842565 24778,6917.873,95.437,540.629,538.847,0.0
54193.0,STARLINK-5263,PAYLOAD,2023-04-07 04:57:40,15.08837376,0.0001336,53.2151,106.2792,83.6046,276.5098,6.9358e-05,8.16e-06,0.0,0 STARLINK-5263,1 54193U 22141AN  23097.20671875  .00000816  00000-0  69358-4 0  9999,2 54193  53.2151 106.2792 0001336  83.6046 276.5098 15.08837376 25077,6917.888,95.438,540.678,538.829,0.0
54193.0,STARLINK-5263,PAYLOAD,2023-04-07 12:54:36,15.088428,0.0001363,53.2156,104.7924,83.0353,277.0794,0.00017573,2.51e-05,0.0,0 STARLINK-5263,1 54193U 22141AN  23097.53791754  .00002510  00000-0  17573-3 0  9998,2 54193  53.2156 104.7924 0001363  83.0353 277.0794 15.08842800 24893,6917.872,95.437,540.68,538.794,0.0
54193.0,STARLINK-5263,PAYLOAD,2023-04-08 07:59:13,15.08846379,0.0001325,53.216,101.2253,83.6385,276.4757,0.0001452,2.024e-05,0.0,0 STARLINK-5263,1 54193U 22141AN  23098.33279621  .00002024  00000-0  14520-3 0  9990,2 54193  53.2160 101.2253 0001325  83.6385 276.4757 15.08846379 25241,6917.861,95.437,540.643,538.809,0.0
54193.0,STARLINK-5263,PAYLOAD,2023-04-09 11:00:46,15.08845166,0.0001319,53.2165,96.1679,97.1369,262.9773,0.00013553,1.87e-05,0.0,0 STARLINK-5263,1 54193U 22141AN  23099.45887589  .00001870  00000-0  13553-3 0  9995,2 54193  53.2165  96.1679 0001319  97.1369 262.9773 15.08845166 25415,6917.865,95.437,540.642,538.817,0.0
54193.0,STARLINK-5263,PAYLOAD,2023-04-09 17:22:19,15.08836072,0.0001474,53.2166,94.9802,79.0088,281.107,6.5873e-06,-1.83e-06,0.0,0 STARLINK-5263,1 54193U 22141AN  23099.72384194 -.00000183  00000-0  65873-5 0  9990,2 54193  53.2166  94.9802 0001474  79.0088 281.1070 15.08836072 25452,6917.892,95.438,540.777,538.738,0.0
54193.0,STARLINK-5263,PAYLOAD,2023-04-10 10:51:33,15.08857606,0.0001011,53.2174,91.7086,107.8429,252.2673,0.00031316,4.702e-05,0.0,0 STARLINK-5263,1 54193U 22141AN  23100.45246983  .00004702  00000-0  31316-3 0  9999,2 54193  53.2174  91.7086 0001011 107.8429 252.2673 15.08857606 25562,6917.827,95.436,540.391,538.992,0.0
54193.0,STARLINK-5263,PAYLOAD,2023-04-11 05:56:11,15.08846905,0.0001366,53.2181,88.14,99.0097,261.105,0.00015672,2.208e-05,0.0,0 STARLINK-5263,1 54193U 22141AN  23101.24735346  .00002208  00000-0  15672-3 0  9999,2 54193  53.2181  88.1400 0001366  99.0097 261.1050 15.08846905 25687,6917.859,95.437,540.669,538.779,0.0
54193.0,STARLINK-5263,PAYLOAD,2023-04-11 10:42:20,15.08841347,0.0001093,53.2166,87.2488,93.6201,266.4916,1.8608e-05,8e-08,0.0,0 STARLINK-5263,1 54193U 22141AN  23101.44607516  .00000008  00000-0  18608-4 0  9997,2 54193  53.2166  87.2488 0001093  93.6201 266.4916 15.08841347 25482,6917.876,95.437,540.497,538.985,0.0
54193.0,STARLINK-5263,PAYLOAD,2023-04-12 04:11:36,15.08828199,0.0001472,53.2182,83.9771,103.4473,256.6684,1.2925e-05,-8.2e-07,0.0,0 STARLINK-5263,1 54193U 22141AN  23102.17472971 -.00000082  00000-0  12925-4 0  9992,2 54193  53.2182  83.9771 0001472 103.4473 256.6684 15.08828199 25821,6917.916,95.438,540.8,538.763,0.0
54193.0,STARLINK-5263,PAYLOAD,2023-04-12 07:22:22,15.0883761,0.0001168,53.2183,83.3839,109.0987,251.0131,-4.7164e-05,-1.038e-05,0.0,0 STARLINK-5263,1 54193U 22141AN  23102.30720621 -.00001038  00000-0 -47164-4 0  9991,2 54193  53.2183  83.3839 0001168 109.0987 251.0131 15.08837610 25616,6917.888,95.438,540.561,538.945,0.0
54193.0,STARLINK-5263,PAYLOAD,2023-04-12 15:19:18,15.08839795,0.0001159,53.2187,81.8976,101.0996,259.0127,-7.3902e-05,-1.464e-05,0.0,0 STARLINK-5263,1 54193U 22141AN  23102.63840576 -.00001464  00000-0 -73902-4 0  9991,2 54193  53.2187  81.8976 0001159 101.0996 259.0127 15.08839795 25896,6917.881,95.438,540.548,538.944,0.0
54193.0,STARLINK-5263,PAYLOAD,2023-04-13 08:48:32,15.08839022,0.0001318,53.2186,78.6256,99.5686,260.5455,0.00017855,2.555e-05,0.0,0 STARLINK-5263,1 54193U 22141AN  23103.36704418  .00002555  00000-0  17855-3 0  9990,2 54193  53.2186  78.6256 0001318  99.5686 260.5455 15.08839022 25775,6917.883,95.438,540.66,538.837,0.0
54193.0,STARLINK-5263,PAYLOAD,2023-04-14 05:28:33,15.0884104,0.0001167,53.2177,74.7593,93.7742,266.3384,0.00018142,2.601e-05,0.0,0 STARLINK-5263,1 54193U 22141AN  23104.22816762  .00002601  00000-0  18142-3 0  9994,2 54193  53.2177  74.7593 0001167  93.7742 266.3384 15.08841040 25900,6917.877,95.437,540.55,538.935,0.0
54193.0,STARLINK-5263,PAYLOAD,2023-04-15 05:19:20,15.0885019,0.0001337,53.2178,70.3014,91.7173,268.3972,0.00020595,2.992e-05,0.0,0 STARLINK-5263,1 54193U 22141AN  23105.22176380  .00002992  00000-0  20595-3 0  9998,2 54193  53.2178  70.3014 0001337  91.7173 268.3972 15.08850190 26289,6917.849,95.437,540.639,538.789,0.0
54193.0,STARLINK-5263,PAYLOAD,2023-04-16 03:34:44,15.08843644,0.0001281,53.2179,66.1362,96.1572,263.9566,0.00010872,1.443e-05,0.0,0 STARLINK-5263,1 54193U 22141AN  23106.14912652  .00001443  00000-0  10872-3 0  9997,2 54193  53.2179  66.1362 0001281  96.1572 263.9566 15.08843644 26421,6917.869,95.437,540.62,538.848,0.0
54193.0,STARLINK-5263,PAYLOAD,2023-04-16 06:45:30,15.08850321,0.0001245,53.2175,65.5406,105.2713,254.8417,0.00015012,2.103e-05,0.0,0 STARLINK-5263,1 54193U 22141AN  23106.28160236  .00002103  00000-0  15012-3 0  9990,2 54193  53.2175  65.5406 0001245 105.2713 254.8417 15.08850321 26219,6917.849,95.437,540.575,538.853,0.0
54193.0,STARLINK-5263,PAYLOAD,2023-04-17 03:25:31,15.08843274,0.000159,53.2183,61.6757,115.8553,244.2603,0.00012762,1.744e-05,0.0,0 STARLINK-5263,1 54193U 22141AN  23107.14272655  .00001744  00000-0  12762-3 0  9994,2 54193  53.2183  61.6757 0001590 115.8553 244.2603 15.08843274 26349,6917.87,95.437,540.835,538.635,0.0
